0 COSMOS 2330
1 23792U 96009F   13281.48589858  .00000026  00000-0  89448-4 0  3963
2 23792 082.5822 052.5762 0012288 108.5305 317.8409 12.60864687811721
0 COSMOS 2330
1 23792U 96009F   13283.64195324  .00000015  00000-0  27061-4 0  3976
2 23792 082.5826 051.2045 0012256 104.1103 023.9641 12.60865073811990
0 COSMOS 2330
1 23792U 96009F   13285.79317147  .00000009  00000-0 -91536-5 0  3987
2 23792 082.5832 049.8361 0012269 099.6195 068.2182 12.60865208812267
0 COSMOS 2330
1 23792U 96009F   13288.06872383  .00000013  00000-0  13545-4 0  3996
2 23792 082.5837 048.3887 0012210 094.8639 316.8242 12.60864957812556
0 COSMOS 2330
1 23792U 96009F   13290.46720259  .00000046  00000-0  20151-3 0  4006
2 23792 082.5839 046.8634 0012219 089.9054 043.3319 12.60864946812854
0 COSMOS 2330
1 23792U 96009F   13292.77317219  .00000038  00000-0  15542-3 0  4010
2 23792 082.5839 045.3970 0012171 085.1295 069.9542 12.60864879813143
0 COSMOS 2330
1 23792U 96009F   13294.82827427  .00000037  00000-0  15086-3 0  4028
2 23792 082.5839 044.0900 0012123 080.8111 037.9704 12.60865218813400
